1942 1
STARLINK-1516 1442
1 45749U 20038V   24068.00000000  .05537828  12507-4  23872-3 0  9994
2 45749  52.9609 223.5150 0006980 305.9361  54.1037 16.43106914 58930
STARLINK-1507 1443
1 45748U 20038U   24068.00000000  .00022857  00000-0  14201-2 0  9995
2 45748  53.0536 280.6743 0002568 171.4743 188.6291 15.09587848206851
STARLINK-1506 1444
1 45747U 20038T   24068.00000000  .00000539  00000-0  55110-4 0  9993
2 45747  53.0550 286.3108 0001534  79.9084 280.2078 15.06384148206662
STARLINK-1504 1445
1 45746U 20038S   24068.00000000  .00001383  00000-0  11170-3 0  9997
2 45746  53.0541 281.2628 0001437  99.1114 261.0037 15.06407031206830
STARLINK-1503 1446
1 45745U 20038R   24068.00000000  .00000980  00000-0  84659-4 0  9991
2 45745  53.0551 284.3078 0001362  87.9195 272.1950 15.06396366205805
STARLINK-1500 1447
1 45744U 20038Q   24068.00000000  .00002212  00000-0  16731-3 0  9995
2 45744  53.0548 281.2764 0001377  95.7272 264.3874 15.06405339206830
STARLINK-1483 1448
1 45743U 20038P   24068.00000000  .00013002  00000-0  50043-3 0  9997
2 45743  53.0527 277.4568 0001653 213.0503 147.0392 15.26720585205908
STARLINK-1481 1449
1 45742U 20038N   24068.00000000  .00000667  00000-0  63624-4 0  9999
2 45742  53.0528 281.2307 0001028  82.8155 277.2950 15.06406848207025
STARLINK-1480 1450
1 45741U 20038M   24068.00000000  .00000136  00000-0  28043-4 0  9995
2 45741  53.0547 282.9847 0001335  91.9226 268.1916 15.06390754205862
STARLINK-1479 1451
1 45740U 20038L   24068.00000000 -.00002196  00000-0 -12857-3 0  9999
2 45740  53.0541 284.0433 0001142  89.6615 270.4505 15.06404793206939
STARLINK-1475 1452
1 45739U 20038K   24068.00000000 -.00000703  00000-0 -28293-4 0  9991
2 45739  53.0535 244.8996 0001394  96.2610 263.8538 15.06387158207316
STARLINK-1474 1453
1 45738U 20038J   24068.00000000 -.00001142  00000-0 -57773-4 0  9993
2 45738  53.0560 284.3726 0001557  90.1896 269.9271 15.06401373205802
STARLINK-1473 1454
1 45737U 20038H   24068.00000000  .12805629  12187-4  18688-2 0  9998
2 45737  52.9645 170.7137 0005422 264.0653  96.4333 16.33801791 61626
STARLINK-1472 1455
1 45736U 20038G   24068.00000000  .07079995  12401-4  51958-3 0  9997
2 45736  53.0159 115.1008 0005664 297.9865 223.0218 16.39904782196411
STARLINK-1471 1456
1 45735U 20038F   24068.00000000  .00000546  00000-0  55551-4 0  9997
2 45735  53.0548 284.3239 0001399  93.4889 266.6260 15.06394045205805
STARLINK-1468 1457
1 45734U 20038E   24068.00000000  .00036743  00000-0  14537-2 0  9991
2 45734  53.0710 250.5111 0001880 297.3744  62.7061 15.25134136206246
STARLINK-1467 1458
1 45733U 20038D   24068.00000000  .00017470  00000-0  61341-3 0  9992
2 45733  53.0673 234.1671 0006183 157.5674 202.5597 15.29496134207660
STARLINK-1466 1459
1 45732U 20038C   24068.00000000  .00002263  00000-0  17075-3 0  9990
2 45732  53.0540 281.1649 0001272  89.6876 270.4259 15.06400921207036
STARLINK-1465 1460
1 45731U 20038B   24068.00000000 -.00000036  00000-0  16466-4 0  9990
2 45731  53.0538 284.3912 0001276  96.0293 264.0841 15.06392621205805
STARLINK-1461 1461
1 45730U 20038A   24068.00000000  .00000808  00000-0  73155-4 0  9993
2 45730  53.0540 284.4600 0001559  96.3059 263.8108 15.06392915205819
STARLINK-1439 1462
1 45716U 20035BM  24068.00000000  .19051623  12160-4  33595-2 0  9991
2 45716  52.9774 243.7339 0008207 276.9797 186.5432 16.31867954102444
STARLINK-1438 1463
1 45715U 20035BL  24068.00000000  .99999999  12440-4  10340-2 0  9999
2 45715  52.9459 358.0170 0017306 174.1779 187.9217 16.49940395 62503
STARLINK-1437 1464
1 45714U 20035BK  24068.00000000  .01288112  00000-0  33860-1 0  9995
2 45714  53.0504  81.6626 0001313  64.9388 164.4987 15.35305096  5804
STARLINK-1436 1465
1 45713U 20035BJ  24068.00000000  .00009168  00000-0  60177-3 0  9998
2 45713  53.0532 100.3353 0001424  34.8938 325.2145 15.08318560208202
STARLINK-1434 1466
1 45712U 20035BH  24068.00000000  .00000727  00000-0  67722-4 0  9993
2 45712  53.0555  80.9807 0001478  96.5974 263.5183 15.06390758208479
STARLINK-1433 1467
1 45711U 20035BG  24068.00000000  .00000171  00000-0  30357-4 0  9999
2 45711  53.0546  84.2395 0001373  91.3820 268.7326 15.06392183208362
STARLINK-1423 1468
1 45710U 20035BF  24068.00000000 -.00000675  00000-0 -26399-4 0  9990
2 45710  53.0552  83.8581 0001457  84.9604 275.1551 15.06392952208378
STARLINK-1421 1469
1 45709U 20035BE  24068.00000000  .00001686  00000-0  13205-3 0  9990
2 45709  53.0541  81.1620 0001031  88.2531 271.8576 15.06402313208466
STARLINK-1418 1470
1 45708U 20035BD  24068.00000000  .00003020  00000-0  22167-3 0  9990
2 45708  53.0545  81.0296 0001206  94.9982 265.1144 15.06381643208475
STARLINK-1412 1471
1 45707U 20035BC  24068.00000000  .00015952  00000-0  10866-2 0  9998
2 45707  53.0539  83.8920 0001384  97.3034 262.8112 15.06425847208376
STARLINK-1411 1472
1 45706U 20035BB  24068.00000000  .00000992  00000-0  85529-4 0  9995
2 45706  53.0542  81.1940 0001384  91.1655 268.9492 15.06386961208464
STARLINK-1410 1473
1 45705U 20035BA  24068.00000000  .25198785  12140-4  31609-2 0  9999
2 45705  53.0350 284.5087 0005553 197.7612 314.3394 16.35230808201381
STARLINK-1409 1474
1 45704U 20035AZ  24068.00000000  .01151053  00000-0  26355-1 0  9998
2 45704  53.0479 108.0297 0001474  80.4146 293.1158 15.39451533208093
STARLINK-1407 1475
1 45703U 20035AY  24068.00000000  .00000608  00000-0  59732-4 0  9993
2 45703  53.0532  81.0934 0001555  93.0147 267.1020 15.06388393208468
STARLINK-1405 1476
1 45702U 20035AX  24068.00000000  .00000253  00000-0  35856-4 0  9999
2 45702  53.0544  83.7592 0001594  93.7109 266.4062 15.06406077208780
STARLINK-1403 1477
1 45701U 20035AW  24068.00000000  .00002906  00000-0  21401-3 0  9995
2 45701  53.0532  80.9969 0001413  95.3389 264.7762 15.06385578208477
STARLINK-1400 1478
1 45700U 20035AV  24068.00000000  .00002219  00000-0  16787-3 0  9992
2 45700  53.0546  81.1259 0001362  82.3023 277.8120 15.06388597208466
STARLINK-1398 1479
1 45699U 20035AU  24068.00000000  .00001886  00000-0  14546-3 0  9999
2 45699  53.0535  81.1092 0001579  98.1984 261.9184 15.06399419208512
STARLINK-1370 1480
1 45698U 20035AT  24068.00000000  .00000858  00000-0  76492-4 0  9995
2 45698  53.0537  81.0538 0001433 105.3901 254.7246 15.06405941208489
STARLINK-1351 1481
1 45697U 20035AS  24068.00000000  .00000833  00000-0  74836-4 0  9997
2 45697  53.0561  81.0129 0001549  90.2815 269.8352 15.06390014208473
STARLINK-1422 1482
1 45696U 20035AR  24068.00000000  .00001370  00000-0  11089-3 0  9993
2 45696  53.0540 100.9037 0001752  94.4969 265.6220 15.06395539208194
STARLINK-1420 1483
1 45695U 20035AQ  24068.00000000  .00001912  00000-0  14716-3 0  9994
2 45695  53.0552  83.9160 0001390  88.7070 271.4078 15.06409218208376
STARLINK-1419 1484
1 45694U 20035AP  24068.00000000  .11816025  11837-4  62175-2 0  9999
2 45694  53.0101  72.6186 0016256 280.7103 207.4319 16.19062915183920
STARLINK-1417 1485
1 45693U 20035AN  24068.00000000 -.00000428  00000-0 -98174-5 0  9997
2 45693  53.0547 103.6371 0001423  98.7820 261.3330 15.06389756208107
STARLINK-1416 1486
1 45692U 20035AM  24068.00000000 -.00000643  00000-0 -24306-4 0  9990
2 45692  53.0528 104.0193 0001538  92.1704 267.9461 15.06393896208093
STARLINK-1415 1487
1 45691U 20035AL  24068.00000000 -.00000235  00000-0  31467-5 0  9992
2 45691  53.0536 103.9833 0001328  96.5767 263.5373 15.06397380208506
STARLINK-1414 1488
1 45690U 20035AK  24068.00000000  .00002916  00000-0  21457-3 0  9994
2 45690  53.0541 104.3243 0001646  95.1668 264.9509 15.06401318208029
STARLINK-1413 1489
1 45689U 20035AJ  24068.00000000  .00003942  00000-0  28341-3 0  9991
2 45689  53.0537 103.6202 0001434  99.8658 260.2493 15.06395711208428
STARLINK-1408 1490
1 45688U 20035AH  24068.00000000  .00021522  00000-0  75254-3 0  9999
2 45688  53.0826  49.3369 0004161 329.2339  30.8416 15.29498796208938
STARLINK-1406 1491
1 45687U 20035AG  24068.00000000  .18875556  12162-4  35272-2 0  9992
2 45687  53.0007 101.2829 0002165  20.4613 339.9495 16.31395563 98438
STARLINK-1404 1492
1 45686U 20035AF  24068.00000000 -.00001182  00000-0 -60540-4 0  9992
2 45686  53.0534 100.7254 0001222  88.6557 271.4572 15.06368330208201
STARLINK-1402 1493
1 45685U 20035AE  24068.00000000  .00001996  00000-0  15294-3 0  9997
2 45685  53.0527  95.4206 0001554  97.8041 262.3125 15.06383907208274
STARLINK-1401 1494
1 45684U 20035AD  24068.00000000  .00009271  00000-0  39284-3 0  9995
2 45684  53.0601  80.2839 0007616  78.3894 281.7957 15.23832765208846
STARLINK-1399 1495
1 45683U 20035AC  24068.00000000  .00003305  00000-0  24076-3 0  9999
2 45683  53.0550 100.8734 0001698  96.7216 263.3966 15.06384934208192
STARLINK-1397 1496
1 45682U 20035AB  24068.00000000  .00001456  00000-0  11666-3 0  9994
2 45682  53.0529 100.7884 0001492  95.5493 264.5666 15.06388455208190
STARLINK-1396 1497
1 45681U 20035AA  24068.00000000  .00064506  00000-0  24684-2 0  9991
2 45681  53.0463  89.5721 0007262  59.5090 300.6624 15.25967918208693
STARLINK-1395 1498
1 45680U 20035Z   24068.00000000 -.00000082  00000-0  13415-4 0  9992
2 45680  53.0563 103.4862 0001613  95.4166 264.7007 15.06389734208106
STARLINK-1394 1499
1 45679U 20035Y   24068.00000000  .00001291  00000-0  10554-3 0  9992
2 45679  53.0546 100.8418 0001716  87.8758 272.2427 15.06411019208202
STARLINK-1393 1500
1 45678U 20035X   24068.00000000  .00014120  00000-0  96401-3 0  9991
2 45678  53.0532 104.1352 0001495  82.1140 278.0019 15.06434059208083
STARLINK-1392 1501
1 45677U 20035W   24068.00000000  .00003246  00000-0  23674-3 0  9999
2 45677  53.0527 110.8287 0001332  97.5921 262.5219 15.06390333208057
STARLINK-1460 1502
1 45676U 20035V   24068.00000000  .00008674  00000-0  60055-3 0  9992
2 45676  53.0536 113.8591 0001420 101.7166 258.3982 15.06398174207953
STARLINK-1458 1503
1 45675U 20035U   24068.00000000  .00003894  00000-0  28011-3 0  9996
2 45675  53.0519 110.7454 0001437  87.8017 272.3136 15.06403133208055
